{"type": "FeatureCollection", "features": [{"type": "Feature", "id": "firepost:EC:induk", "geometry": {"type": "Point", "coordinates": [140.86408, -7.018533]}, "properties": {"entity": "fire_post", "estate_code": "EC", "kind": "pos_induk", "name": "Pos Induk EC", "label": "Main fire post", "crew": 15, "crew_on_shift": 15, "tanker_litres": 5000, "pumps": 3, "pump_lpm": 500, "response_kmh": 30, "provenance": "synthetic", "would_come_from": "Estate HSE register / ISPO fire-control plan"}}, {"type": "Feature", "id": "firepost:EC:div1", "geometry": {"type": "Point", "coordinates": [140.862249, -7.058294]}, "properties": {"entity": "fire_post", "estate_code": "EC", "division_code": "1", "kind": "pos_divisi", "name": "Pos Divisi 1", "label": "Division 1 fire post", "crew": 6, "crew_on_shift": 4, "tanker_litres": 0, "pumps": 2, "pump_lpm": 500, "response_kmh": 25, "provenance": "synthetic", "would_come_from": "Estate HSE register / ISPO fire-control plan"}}, {"type": "Feature", "id": "firepost:EC:div2", "geometry": {"type": "Point", "coordinates": [140.878735, -7.051712]}, "properties": {"entity": "fire_post", "estate_code": "EC", "division_code": "2", "kind": "pos_divisi", "name": "Pos Divisi 2", "label": "Division 2 fire post", "crew": 6, "crew_on_shift": 2, "tanker_litres": 0, "pumps": 1, "pump_lpm": 500, "response_kmh": 25, "provenance": "synthetic", "would_come_from": "Estate HSE register / ISPO fire-control plan"}}, {"type": "Feature", "id": "firepost:EC:div3", "geometry": {"type": "Point", "coordinates": [140.856901, -7.023088]}, "properties": {"entity": "fire_post", "estate_code": "EC", "division_code": "3", "kind": "pos_divisi", "name": "Pos Divisi 3", "label": "Division 3 fire post", "crew": 8, "crew_on_shift": 5, "tanker_litres": 0, "pumps": 2, "pump_lpm": 500, "response_kmh": 25, "provenance": "synthetic", "would_come_from": "Estate HSE register / ISPO fire-control plan"}}, {"type": "Feature", "id": "firepost:EC:div4", "geometry": {"type": "Point", "coordinates": [140.858952, -7.000713]}, "properties": {"entity": "fire_post", "estate_code": "EC", "division_code": "4", "kind": "pos_divisi", "name": "Pos Divisi 4", "label": "Division 4 fire post", "crew": 7, "crew_on_shift": 3, "tanker_litres": 0, "pumps": 1, "pump_lpm": 500, "response_kmh": 25, "provenance": "synthetic", "would_come_from": "Estate HSE register / ISPO fire-control plan"}}, {"type": "Feature", "id": "firepost:EC:div5", "geometry": {"type": "Point", "coordinates": [140.841159, -6.986508]}, "properties": {"entity": "fire_post", "estate_code": "EC", "division_code": "5", "kind": "pos_divisi", "name": "Pos Divisi 5", "label": "Division 5 fire post", "crew": 7, "crew_on_shift": 4, "tanker_litres": 0, "pumps": 2, "pump_lpm": 500, "response_kmh": 25, "provenance": "synthetic", "would_come_from": "Estate HSE register / ISPO fire-control plan"}}, {"type": "Feature", "id": "firepost:EC:div6", "geometry": {"type": "Point", "coordinates": [140.894464, -7.00656]}, "properties": {"entity": "fire_post", "estate_code": "EC", "division_code": "6", "kind": "pos_divisi", "name": "Pos Divisi 6", "label": "Division 6 fire post", "crew": 8, "crew_on_shift": 4, "tanker_litres": 0, "pumps": 1, "pump_lpm": 500, "response_kmh": 25, "provenance": "synthetic", "would_come_from": "Estate HSE register / ISPO fire-control plan"}}, {"type": "Feature", "id": "firepost:EC:div7", "geometry": {"type": "Point", "coordinates": [140.902057, -7.040239]}, "properties": {"entity": "fire_post", "estate_code": "EC", "division_code": "7", "kind": "pos_divisi", "name": "Pos Divisi 7", "label": "Division 7 fire post", "crew": 7, "crew_on_shift": 5, "tanker_litres": 0, "pumps": 1, "pump_lpm": 500, "response_kmh": 25, "provenance": "synthetic", "would_come_from": "Estate HSE register / ISPO fire-control plan"}}, {"type": "Feature", "id": "firetower:EC:1", "geometry": {"type": "Point", "coordinates": [140.867731, -7.051529]}, "properties": {"entity": "fire_tower", "estate_code": "EC", "division_code": "1", "kind": "menara_api", "name": "Menara Api 1", "label": "Watch tower, division 1", "height_m": 18, "spotters_on_shift": 2, "suppression": false, "provenance": "synthetic", "would_come_from": "Estate HSE register"}}, {"type": "Feature", "id": "firetower:EC:3", "geometry": {"type": "Point", "coordinates": [140.858777, -7.034529]}, "properties": {"entity": "fire_tower", "estate_code": "EC", "division_code": "3", "kind": "menara_api", "name": "Menara Api 3", "label": "Watch tower, division 3", "height_m": 15, "spotters_on_shift": 1, "suppression": false, "provenance": "synthetic", "would_come_from": "Estate HSE register"}}, {"type": "Feature", "id": "firetower:EC:5", "geometry": {"type": "Point", "coordinates": [140.845765, -6.976276]}, "properties": {"entity": "fire_tower", "estate_code": "EC", "division_code": "5", "kind": "menara_api", "name": "Menara Api 5", "label": "Watch tower, division 5", "height_m": 12, "spotters_on_shift": 2, "suppression": false, "provenance": "synthetic", "would_come_from": "Estate HSE register"}}, {"type": "Feature", "id": "firetower:EC:7", "geometry": {"type": "Point", "coordinates": [140.908052, -7.050688]}, "properties": {"entity": "fire_tower", "estate_code": "EC", "division_code": "7", "kind": "menara_api", "name": "Menara Api 7", "label": "Watch tower, division 7", "height_m": 12, "spotters_on_shift": 2, "suppression": false, "provenance": "synthetic", "would_come_from": "Estate HSE register"}}, {"type": "Feature", "id": "water:EC:embung1", "geometry": {"type": "Point", "coordinates": [140.853595, -7.055372]}, "properties": {"entity": "water_source", "estate_code": "EC", "division_code": "1", "kind": "embung", "name": "Embung Divisi 1", "label": "Reservoir, division 1", "capacity_m3": 2698, "usable_m3": 1929, "pump_access": true, "provenance": "synthetic", "would_come_from": "Estate civil / water management records"}}, {"type": "Feature", "id": "water:EC:embung3", "geometry": {"type": "Point", "coordinates": [140.85977, -7.026896]}, "properties": {"entity": "water_source", "estate_code": "EC", "division_code": "3", "kind": "embung", "name": "Embung Divisi 3", "label": "Reservoir, division 3", "capacity_m3": 3873, "usable_m3": 2520, "pump_access": true, "provenance": "synthetic", "would_come_from": "Estate civil / water management records"}}, {"type": "Feature", "id": "water:EC:embung5", "geometry": {"type": "Point", "coordinates": [140.846075, -6.98385]}, "properties": {"entity": "water_source", "estate_code": "EC", "division_code": "5", "kind": "embung", "name": "Embung Divisi 5", "label": "Reservoir, division 5", "capacity_m3": 3566, "usable_m3": 2436, "pump_access": true, "provenance": "synthetic", "would_come_from": "Estate civil / water management records"}}, {"type": "Feature", "id": "water:EC:embung7", "geometry": {"type": "Point", "coordinates": [140.903363, -7.048778]}, "properties": {"entity": "water_source", "estate_code": "EC", "division_code": "7", "kind": "embung", "name": "Embung Divisi 7", "label": "Reservoir, division 7", "capacity_m3": 3911, "usable_m3": 2824, "pump_access": true, "provenance": "synthetic", "would_come_from": "Estate civil / water management records"}}, {"type": "Feature", "id": "water:EC:parit-induk", "geometry": {"type": "LineString", "coordinates": [[140.814269, -7.032551], [140.818558, -7.030502], [140.822847, -7.028542], [140.827136, -7.026755], [140.831425, -7.025219], [140.835714, -7.024], [140.840003, -7.023151], [140.844292, -7.022708], [140.848581, -7.022691], [140.85287, -7.0231], [140.857159, -7.023918], [140.861448, -7.02511], [140.865737, -7.026623], [140.870026, -7.028392], [140.874315, -7.030342], [140.878604, -7.032387], [140.882893, -7.034439], [140.887182, -7.036409], [140.891471, -7.038213], [140.89576, -7.039772], [140.900049, -7.041018], [140.904338, -7.041898], [140.908627, -7.042374], [140.912916, -7.042426], [140.917205, -7.04205]]}, "properties": {"entity": "water_source", "estate_code": "EC", "kind": "parit_induk", "name": "Parit Induk", "label": "Main drainage canal", "length_km": 11.98, "pump_access": true, "continuous": true, "capacity_m3": null, "usable_m3": null, "draw_rate_lpm": 1000, "provenance": "synthetic", "would_come_from": "Estate drainage network survey"}}]}