{"type": "FeatureCollection", "features": [{"type": "Feature", "id": "estate:K3", "geometry": {"type": "Polygon", "coordinates": [[[118.58432333333333, 4.983861666666667], [118.61143166666668, 4.95765], [118.62525333333333, 4.9499466666666665], [118.640175, 4.9535816666666665], [118.64336333333334, 4.954398333333333], [118.647175, 4.956206666666667], [118.64874833333333, 4.9572883333333335], [118.65636666666666, 4.965096666666667], [118.67014666666667, 4.9829799999999995], [118.67274, 5.009331666666667], [118.637645, 5.039988333333333], [118.63704833333334, 5.04015], [118.63697333333333, 5.040166666666667], [118.63604833333332, 5.04028], [118.63590500000001, 5.040295], [118.63576833333333, 5.040308333333333], [118.63573333333333, 5.040311666666667], [118.63561833333333, 5.040321666666667], [118.63466166666667, 5.040375], [118.62750833333332, 5.0395916666666665], [118.61399666666667, 5.024131666666666], [118.58432333333333, 4.983861666666667]]]}, "properties": {"entity": "estate", "estate_code": "K3", "provenance": "real:gps-hull", "source": "t_oph harvester GPS via DATABASE_URL", "gps_fixes": 135268, "gps_fixes_kept": 132562, "divisions": 3, "hull_area_ha": 6197.4, "caveat": "Estate outline only. Harvester GPS cannot resolve block boundaries: block centroids sit ~54 m apart while each block's fixes spread ~879 m."}}, {"type": "Feature", "id": "estate:BA", "geometry": {"type": "Polygon", "coordinates": [[[110.96624166666668, -2.7892183333333334], [110.89085166666668, -2.797336666666667], [110.85827499999999, -2.8210583333333332], [110.83905000000001, -2.8639066666666664], [110.83772833333333, -2.872176666666667], [110.84241166666668, -2.8796083333333335], [110.84247166666667, -2.8797], [110.842525, -2.8797783333333333], [110.84418499999998, -2.8819749999999997], [110.84489166666665, -2.8825316666666665], [110.84744, -2.884355], [110.85591666666666, -2.8889366666666665], [110.935, -2.8369766666666667], [110.93764166666666, -2.834415], [110.94493833333333, -2.8238366666666668], [110.96624166666668, -2.7892183333333334]]]}, "properties": {"entity": "estate", "estate_code": "BA", "provenance": "real:gps-hull", "source": "t_oph harvester GPS via DATABASE_URL_BA", "gps_fixes": 60647, "gps_fixes_kept": 59434, "divisions": 3, "hull_area_ha": 7709.7, "caveat": "Estate outline only. Harvester GPS cannot resolve block boundaries: block centroids sit ~54 m apart while each block's fixes spread ~879 m."}}]}